ONEWEB-0225             
1 48799U 21045AJ  25358.20277963  .00000046  00000+0  88543-4 0  9999
2 48799  87.9001 294.1223 0002076  58.8103 301.3231 13.15546117221414
ONEWEB-0215             
1 48800U 21045AK  25358.24871794 -.00000350  00000+0 -96308-3 0  9995
2 48800  87.9017 294.0757 0002005  55.5054 304.6266 13.15548239221293
ONEWEB-0216             
1 48801U 21045AL  25358.25823588  .00000108  00000+0  25361-3 0  9995
2 48801  87.9003 294.1027 0001969  75.3816 284.7533 13.15550229221303
ONEWEB-0239             
1 48802U 21045AM  25358.26299065  .00000157  00000+0  38346-3 0  9995
2 48802  87.9002 294.1165 0001716  49.5449 310.5831 13.15547468221345
ONEWEB-0249             
1 48967U 21060A   25358.18308491 -.00000135  00000+0 -38572-3 0  9998
2 48967  87.9045 263.6247 0001645  69.8065 290.3243 13.16593840216584
ONEWEB-0250             
1 48968U 21060B   25358.29705431  .00000039  00000+0  59978-4 0  9991
2 48968  87.9042 261.9302 0000743  51.3159 308.8044 13.25820803217041
ONEWEB-0252             
1 48970U 21060D   25357.30279648  .00000049  00000+0  95456-4 0  9993
2 48970  87.9045 263.7939 0001925  75.7674 284.3671 13.16593894216510
ONEWEB-0253             
1 48971U 21060E   25358.20367628  .00000104  00000+0  23959-3 0  9990
2 48971  87.9050 263.6186 0001744  69.1369 290.9949 13.16592462216563
ONEWEB-0254             
1 48972U 21060F   25358.21317819  .00000401  00000+0  10156-2 0  9993
2 48972  87.9048 263.6093 0001447  71.1784 288.9503 13.16592894216564
ONEWEB-0255             
1 48973U 21060G   25358.25117358  .00000061  00000+0  12548-3 0  9994
2 48973  87.9040 263.6161 0001639  65.7241 294.4061 13.16592892216641
ONEWEB-0256             
1 48974U 21060H   25358.27730048  .00000262  00000+0  65232-3 0  9995
2 48974  87.9032 263.6195 0001686  81.4130 278.7192 13.16595410216610
ONEWEB-0257             
1 48975U 21060J   25358.15775006 -.00000282  00000+0 -77246-3 0  9998
2 48975  87.9046 263.6224 0001789  69.7563 290.3760 13.16592845216555
ONEWEB-0258             
1 48976U 21060K   25358.23533131 -.00000234  00000+0 -64462-3 0  9992
2 48976  87.9037 263.6218 0001520  72.4903 287.6394 13.16594331216577
ONEWEB-0259             
1 48977U 21060L   25358.22899717 -.00000180  00000+0 -50476-3 0  9997
2 48977  87.9047 263.6179 0001607  68.5361 291.5941 13.16593186216608
ONEWEB-0260             
1 48978U 21060M   25358.29630306  .00000040  00000+0  71359-4 0  9999
2 48978  87.9035 263.6163 0002014  79.9998 280.1360 13.16595688216590
ONEWEB-0261             
1 48979U 21060N   25358.26622111  .00000044  00000+0  80421-4 0  9996
2 48979  87.9035 263.6246 0001871  63.1114 297.0209 13.16593802216649
