[{"OBJECT_NAME":"ONEWEB-0225","OBJECT_ID":"2021-045AJ","EPOCH":"2025-12-24T04:52:00.160032","MEAN_MOTION":13.15546117,"ECCENTRICITY":0.00020766,"INCLINATION":87.9001,"RA_OF_ASC_NODE":294.1223,"ARG_OF_PERICENTER":58.8103,"MEAN_ANOMALY":301.3231,"EPHEMERIS_TYPE":0,"CLASSIFICATION_TYPE":"U","NORAD_CAT_ID":48799,"ELEMENT_SET_NO":999,"REV_AT_EPOCH":22141,"BSTAR":8.8543123e-5,"MEAN_MOTION_DOT":4.6e-7,"MEAN_MOTION_DDOT":0},{"OBJECT_NAME":"ONEWEB-0215","OBJECT_ID":"2021-045AK","EPOCH":"2025-12-24T05:58:09.230016","MEAN_MOTION":13.15548239,"ECCENTRICITY":0.00020053,"INCLINATION":87.9017,"RA_OF_ASC_NODE":294.0757,"ARG_OF_PERICENTER":55.5054,"MEAN_ANOMALY":304.6266,"EPHEMERIS_TYPE":0,"CLASSIFICATION_TYPE":"U","NORAD_CAT_ID":48800,"ELEMENT_SET_NO":999,"REV_AT_EPOCH":22129,"BSTAR":-0.00096308182,"MEAN_MOTION_DOT":-3.5e-6,"MEAN_MOTION_DDOT":0},{"OBJECT_NAME":"ONEWEB-0216","OBJECT_ID":"2021-045AL","EPOCH":"2025-12-24T06:11:51.580032","MEAN_MOTION":13.15550229,"ECCENTRICITY":0.00019698,"INCLINATION":87.9003,"RA_OF_ASC_NODE":294.1027,"ARG_OF_PERICENTER":75.3816,"MEAN_ANOMALY":284.7533,"EPHEMERIS_TYPE":0,"CLASSIFICATION_TYPE":"U","NORAD_CAT_ID":48801,"ELEMENT_SET_NO":999,"REV_AT_EPOCH":22130,"BSTAR":0.00025360995,"MEAN_MOTION_DOT":1.08e-6,"MEAN_MOTION_DDOT":0},{"OBJECT_NAME":"ONEWEB-0239","OBJECT_ID":"2021-045AM","EPOCH":"2025-12-24T06:18:42.392160","MEAN_MOTION":13.15547468,"ECCENTRICITY":0.00017166,"INCLINATION":87.9002,"RA_OF_ASC_NODE":294.1165,"ARG_OF_PERICENTER":49.5449,"MEAN_ANOMALY":310.5831,"EPHEMERIS_TYPE":0,"CLASSIFICATION_TYPE":"U","NORAD_CAT_ID":48802,"ELEMENT_SET_NO":999,"REV_AT_EPOCH":22134,"BSTAR":0.00038345947,"MEAN_MOTION_DOT":1.57e-6,"MEAN_MOTION_DDOT":0},{"OBJECT_NAME":"ONEWEB-0249","OBJECT_ID":"2021-060A","EPOCH":"2025-12-24T04:23:38.536224","MEAN_MOTION":13.1659384,"ECCENTRICITY":0.0001645,"INCLINATION":87.9045,"RA_OF_ASC_NODE":263.6247,"ARG_OF_PERICENTER":69.8065,"MEAN_ANOMALY":290.3243,"EPHEMERIS_TYPE":0,"CLASSIFICATION_TYPE":"U","NORAD_CAT_ID":48967,"ELEMENT_SET_NO":999,"REV_AT_EPOCH":21658,"BSTAR":-0.00038572327,"MEAN_MOTION_DOT":-1.35e-6,"MEAN_MOTION_DDOT":0},{"OBJECT_NAME":"ONEWEB-0250","OBJECT_ID":"2021-060B","EPOCH":"2025-12-24T07:07:45.492384","MEAN_MOTION":13.25820803,"ECCENTRICITY":7.433e-5,"INCLINATION":87.9042,"RA_OF_ASC_NODE":261.9302,"ARG_OF_PERICENTER":51.3159,"MEAN_ANOMALY":308.8044,"EPHEMERIS_TYPE":0,"CLASSIFICATION_TYPE":"U","NORAD_CAT_ID":48968,"ELEMENT_SET_NO":999,"REV_AT_EPOCH":21704,"BSTAR":5.9977603e-5,"MEAN_MOTION_DOT":3.9e-7,"MEAN_MOTION_DDOT":0},{"OBJECT_NAME":"ONEWEB-0252","OBJECT_ID":"2021-060D","EPOCH":"2025-12-23T07:16:01.615872","MEAN_MOTION":13.16593894,"ECCENTRICITY":0.00019254,"INCLINATION":87.9045,"RA_OF_ASC_NODE":263.7939,"ARG_OF_PERICENTER":75.7674,"MEAN_ANOMALY":284.3671,"EPHEMERIS_TYPE":0,"CLASSIFICATION_TYPE":"U","NORAD_CAT_ID":48970,"ELEMENT_SET_NO":999,"REV_AT_EPOCH":21651,"BSTAR":9.5455903e-5,"MEAN_MOTION_DOT":4.9e-7,"MEAN_MOTION_DDOT":0},{"OBJECT_NAME":"ONEWEB-0253","OBJECT_ID":"2021-060E","EPOCH":"2025-12-24T04:53:17.630592","MEAN_MOTION":13.16592462,"ECCENTRICITY":0.00017441,"INCLINATION":87.905,"RA_OF_ASC_NODE":263.6186,"ARG_OF_PERICENTER":69.1369,"MEAN_ANOMALY":290.9949,"EPHEMERIS_TYPE":0,"CLASSIFICATION_TYPE":"U","NORAD_CAT_ID":48971,"ELEMENT_SET_NO":999,"REV_AT_EPOCH":21656,"BSTAR":0.00023959415,"MEAN_MOTION_DOT":1.04e-6,"MEAN_MOTION_DDOT":0},{"OBJECT_NAME":"ONEWEB-0254","OBJECT_ID":"2021-060F","EPOCH":"2025-12-24T05:06:58.595616","MEAN_MOTION":13.16592894,"ECCENTRICITY":0.00014475,"INCLINATION":87.9048,"RA_OF_ASC_NODE":263.6093,"ARG_OF_PERICENTER":71.1784,"MEAN_ANOMALY":288.9503,"EPHEMERIS_TYPE":0,"CLASSIFICATION_TYPE":"U","NORAD_CAT_ID":48972,"ELEMENT_SET_NO":999,"REV_AT_EPOCH":21656,"BSTAR":0.0010156024,"MEAN_MOTION_DOT":4.01e-6,"MEAN_MOTION_DDOT":0},{"OBJECT_NAME":"ONEWEB-0255","OBJECT_ID":"2021-060G","EPOCH":"2025-12-24T06:01:41.397312","MEAN_MOTION":13.16592892,"ECCENTRICITY":0.00016394,"INCLINATION":87.904,"RA_OF_ASC_NODE":263.6161,"ARG_OF_PERICENTER":65.7241,"MEAN_ANOMALY":294.4061,"EPHEMERIS_TYPE":0,"CLASSIFICATION_TYPE":"U","NORAD_CAT_ID":48973,"ELEMENT_SET_NO":999,"REV_AT_EPOCH":21664,"BSTAR":0.00012547721,"MEAN_MOTION_DOT":6.1e-7,"MEAN_MOTION_DDOT":0},{"OBJECT_NAME":"ONEWEB-0256","OBJECT_ID":"2021-060H","EPOCH":"2025-12-24T06:39:18.761472","MEAN_MOTION":13.1659541,"ECCENTRICITY":0.00016867,"INCLINATION":87.9032,"RA_OF_ASC_NODE":263.6195,"ARG_OF_PERICENTER":81.413,"MEAN_ANOMALY":278.7192,"EPHEMERIS_TYPE":0,"CLASSIFICATION_TYPE":"U","NORAD_CAT_ID":48974,"ELEMENT_SET_NO":999,"REV_AT_EPOCH":21661,"BSTAR":0.00065232285,"MEAN_MOTION_DOT":2.62e-6,"MEAN_MOTION_DDOT":0},{"OBJECT_NAME":"ONEWEB-0257","OBJECT_ID":"2021-060J","EPOCH":"2025-12-24T03:47:09.605184","MEAN_MOTION":13.16592845,"ECCENTRICITY":0.00017893,"INCLINATION":87.9046,"RA_OF_ASC_NODE":263.6224,"ARG_OF_PERICENTER":69.7563,"MEAN_ANOMALY":290.376,"EPHEMERIS_TYPE":0,"CLASSIFICATION_TYPE":"U","NORAD_CAT_ID":48975,"ELEMENT_SET_NO":999,"REV_AT_EPOCH":21655,"BSTAR":-0.0007724582,"MEAN_MOTION_DOT":-2.82e-6,"MEAN_MOTION_DDOT":0},{"OBJECT_NAME":"ONEWEB-0258","OBJECT_ID":"2021-060K","EPOCH":"2025-12-24T05:38:52.625184","MEAN_MOTION":13.16594331,"ECCENTRICITY":0.00015207,"INCLINATION":87.9037,"RA_OF_ASC_NODE":263.6218,"ARG_OF_PERICENTER":72.4903,"MEAN_ANOMALY":287.6394,"EPHEMERIS_TYPE":0,"CLASSIFICATION_TYPE":"U","NORAD_CAT_ID":48976,"ELEMENT_SET_NO":999,"REV_AT_EPOCH":21657,"BSTAR":-0.00064461548,"MEAN_MOTION_DOT":-2.34e-6,"MEAN_MOTION_DDOT":0},{"OBJECT_NAME":"ONEWEB-0259","OBJECT_ID":"2021-060L","EPOCH":"2025-12-24T05:29:45.355488","MEAN_MOTION":13.16593186,"ECCENTRICITY":0.00016073,"INCLINATION":87.9047,"RA_OF_ASC_NODE":263.6179,"ARG_OF_PERICENTER":68.5361,"MEAN_ANOMALY":291.5941,"EPHEMERIS_TYPE":0,"CLASSIFICATION_TYPE":"U","NORAD_CAT_ID":48977,"ELEMENT_SET_NO":999,"REV_AT_EPOCH":21660,"BSTAR":-0.00050475618,"MEAN_MOTION_DOT":-1.8e-6,"MEAN_MOTION_DDOT":0},{"OBJECT_NAME":"ONEWEB-0260","OBJECT_ID":"2021-060M","EPOCH":"2025-12-24T07:06:40.584384","MEAN_MOTION":13.16595688,"ECCENTRICITY":0.0002014,"INCLINATION":87.9035,"RA_OF_ASC_NODE":263.6163,"ARG_OF_PERICENTER":79.9998,"MEAN_ANOMALY":280.136,"EPHEMERIS_TYPE":0,"CLASSIFICATION_TYPE":"U","NORAD_CAT_ID":48978,"ELEMENT_SET_NO":999,"REV_AT_EPOCH":21659,"BSTAR":7.135923e-5,"MEAN_MOTION_DOT":4.0e-7,"MEAN_MOTION_DDOT":0},{"OBJECT_NAME":"ONEWEB-0261","OBJECT_ID":"2021-060N","EPOCH":"2025-12-24T06:23:21.503904","MEAN_MOTION":13.16593802,"ECCENTRICITY":0.00018718,"INCLINATION":87.9035,"RA_OF_ASC_NODE":263.6246,"ARG_OF_PERICENTER":63.1114,"MEAN_ANOMALY":297.0209,"EPHEMERIS_TYPE":0,"CLASSIFICATION_TYPE":"U","NORAD_CAT_ID":48979,"ELEMENT_SET_NO":999,"REV_AT_EPOCH":21664,"BSTAR":8.0421251e-5,"MEAN_MOTION_DOT":4.4e-7,"MEAN_MOTION_DDOT":0}]
